ATLAS CENTAUR 2         
1 00694U 63047A   26201.21401474  .00000489  00000+0  45789-4 0  9990
2 00694  30.3522 174.6854 0545668 168.7879 192.5443 14.12568567150370
THOR AGENA D R/B        
1 00733U 64002A   26201.50737815  .00000078  00000+0  45150-4 0  9995
2 00733  99.1155 222.0366 0032009 230.6168 129.2179 14.34077527257337
SL-3 R/B                
1 00877U 64053B   26201.38211393  .00000028  00000+0  29745-4 0  9991
2 00877  65.0779 302.1807 0080073 250.6741 108.5688 14.61441212286189
SL-8 R/B                
1 02802U 67045B   26201.16311146  .00000140  00000+0  46402-4 0  9992
2 02802  74.0110 100.6708 0063067  75.9225 284.8931 14.45697021108161
SL-8 R/B                
1 03230U 68040B   26201.31123860  .00001620  00000+0  11975-3 0  9995
2 03230  74.0291  42.5383 0024794 189.3857 170.6873 15.03955093109940
OAO 2                   
1 03597U 68110A   26201.16742257  .00000076  00000+0  25582-4 0  9993
2 03597  34.9924 245.5311 0005463 186.0860 173.9765 14.47362720 38303
ISIS 1                  
1 03669U 69009A   26201.29701782  .00000086  00000+0  52550-4 0  9999
2 03669  88.4455 140.7645 1707222 181.3558 178.2483 11.30437051363515
SERT 2                  
1 04327U 70009A   26201.56125626 -.00000010  00000+0  43329-4 0  9992
2 04327  99.2839 137.4837 0004775 175.0115 358.4417 13.58741253797930
SL-3 R/B                
1 05118U 71028B   26201.48760537  .00035633  00000+0  26114-3 0  9990
2 05118  81.2297 246.5694 0014778 163.9465 196.2266 15.72832365  9477
ASTEX 1                 
1 05560U 71089A   26201.45331405  .00000282  00000+0  71570-4 0  9992
2 05560  92.7010 194.5702 0015621   5.2540 354.8827 14.50874058881552
SL-8 R/B                
1 05730U 71119B   26201.37286782  .00004592  00000+0  23577-3 0  9994
2 05730  73.8870 287.2446 0542520 226.5265 128.9564 14.39777314674579
OAO 3 (COPERNICUS)      
1 06153U 72065A   26201.46313625  .00000116  00000+0  28089-4 0  9994
2 06153  35.0053 260.8009 0006416 172.1265 208.7075 14.60076276865613
ATLAS CENTAUR R/B       
1 06155U 72065B   26201.31193940  .00000340  00000+0  49532-4 0  9991
2 06155  35.0004 248.3416 0033102  46.0564 314.2860 14.77969279860899
SL-8 R/B                
1 08459U 75112B   26201.28895780  .00000142  00000+0  55224-4 0  9998
2 08459  74.0610 134.9781 0015997 196.7232 163.3397 14.38259703650937
SL-3 R/B                
1 10114U 77057B   26201.56773932  .00006441  00000+0  12299-3 0  9996
2 10114  97.5861  19.7441 0007722 151.8598 208.3071 15.48477823688873
SEASAT 1                
1 10967U 78064A   26201.50925106 -.00000014  00000+0  34712-4 0  9993
2 10967 108.0180  44.2410 0001045 264.0938  96.0089 14.46261516525718
SL-14 R/B               
1 11267U 79011B   26201.64071757  .00000275  00000+0  24592-4 0  9992
2 11267  82.5261 330.4057 0015287 338.5547  21.5030 14.92040831548609
SL-8 R/B                
1 11574U 79089B   26201.42669436  .00000040  00000+0  20052-4 0  9998
2 11574  74.0669 205.3241 0016208 339.1008  20.9484 14.42415456455243
SL-14 R/B               
1 11672U 80005B   26201.33882171  .00000304  00000+0  28064-4 0  9994
2 11672  82.5141 181.3924 0017335  81.9181 278.4004 14.91052671496252
SL-8 R/B                
1 12139U 81003B   26201.38143838  .00017038  00000+0  40331-3 0  9999
2 12139  82.9381 166.9108 0249596  75.6548 287.2253 15.15212290334748
SL-3 R/B                
1 12465U 81046B   26201.55341435  .00007258  00000+0  15339-3 0  9993
2 12465  81.2312 129.8554 0015652 276.5898  83.3565 15.44853719458920
SL-3 R/B                
1 12904U 81103B   26201.50841870  .00002181  00000+0  92848-4 0  9999
2 12904  81.1566  57.4763 0012389 193.3416 166.7491 15.22511339993431
SL-3 R/B                
1 13068U 82013B   26201.60094756  .00002624  00000+0  10975-3 0  9998
2 13068  81.1745   4.8275 0022928  91.1622 269.2237 15.22984392424574
SL-3 R/B                
1 13154U 82039B   26201.55102788  .00001452  00000+0  85403-4 0  9998
2 13154  81.1513  62.5448 0028877 240.2935 119.5416 15.10714490401690
SL-3 R/B                
1 13403U 82079B   26201.49377217  .00003130  00000+0  11949-3 0  9991
2 13403  81.1449  36.0791 0024874  76.4486 283.9517 15.26042962397940
SL-14 R/B               
1 13553U 82092B   26201.04163961  .00000214  00000+0  21182-4 0  9993
2 13553  82.5672  17.5544 0019297 218.6587 263.4737 14.86766664348595
SL-3 R/B                
1 13819U 83010B   26201.44255149  .00008455  00000+0  14986-3 0  9991
2 13819  81.1003 198.9804 0012950 303.4787  56.5221 15.49994840378489
SL-3 R/B                
1 14208U 83075B   26201.51525368  .00006317  00000+0  15388-3 0  9998
2 14208  97.6113 211.3956 0022402 112.0581 248.3047 15.41043701350595
COSMOS 1536             
1 14699U 84013A   26201.55589147  .00003719  00000+0  14566-3 0  9994
2 14699  82.5463 335.6007 0014454 169.5894 190.5646 15.25383375292863
SL-14 R/B               
1 14820U 84027B   26201.27551262  .00000216  00000+0  21887-4 0  9995
2 14820  82.5430 120.6902 0016374 253.0821 106.8601 14.86081052267328
