OBJECT_NAME,OBJECT_ID,EPOCH,MEAN_MOTION,ECCENTRICITY,INCLINATION,RA_OF_ASC_NODE,ARG_OF_PERICENTER,MEAN_ANOMALY,EPHEMERIS_TYPE,CLASSIFICATION_TYPE,NORAD_CAT_ID,ELEMENT_SET_NO,REV_AT_EPOCH,BSTAR,MEAN_MOTION_DOT,MEAN_MOTION_DDOT
ATLAS CENTAUR 2,1963-047A,2026-07-20T05:08:10.873536,14.12568567,.05456682,30.3522,174.6854,168.7879,192.5443,0,U,694,999,15037,.45789032E-4,.489E-5,0
THOR AGENA D R/B,1964-002A,2026-07-20T12:10:37.472160,14.34077527,.00320098,99.1155,222.0366,230.6168,129.2179,0,U,733,999,25733,.45149786E-4,.78E-6,0
SL-3 R/B,1964-053B,2026-07-20T09:10:14.643552,14.61441212,.00800737,65.0779,302.1807,250.6741,108.5688,0,U,877,999,28618,.29744911E-4,.28E-6,0
SL-8 R/B,1967-045B,2026-07-20T03:54:52.830144,14.45697021,.0063067,74.0110,100.6708,75.9225,284.8931,0,U,2802,999,10816,.46402392E-4,.14E-5,0
SL-8 R/B,1968-040B,2026-07-20T07:28:11.015040,15.03955093,.00247946,74.0291,42.5383,189.3857,170.6873,0,U,3230,999,10994,.11974979E-3,.162E-4,0
OAO 2,1968-110A,2026-07-20T04:01:05.310048,14.47362720,.00054637,34.9924,245.5311,186.0860,173.9765,0,U,3597,999,3830,.25582038E-4,.76E-6,0
ISIS 1,1969-009A,2026-07-20T07:07:42.339648,11.30437051,.17072224,88.4455,140.7645,181.3558,178.2483,0,U,3669,999,36351,.52550157E-4,.86E-6,0
SERT 2,1970-009A,2026-07-20T13:28:12.540864,13.58741253,.0004775,99.2839,137.4837,175.0115,358.4417,0,U,4327,999,79793,.43328558E-4,-.1E-6,0
SL-3 R/B,1971-028B,2026-07-20T11:42:09.103968,15.72832365,.00147789,81.2297,246.5694,163.9465,196.2266,0,U,5118,999,947,.26113816E-3,.35633E-3,0
ASTEX 1,1971-089A,2026-07-20T10:52:46.333920,14.50874058,.00156213,92.7010,194.5702,5.2540,354.8827,0,U,5560,999,88155,.71570365E-4,.282E-5,0
SL-8 R/B,1971-119B,2026-07-20T08:56:55.779648,14.39777314,.05425205,73.8870,287.2446,226.5265,128.9564,0,U,5730,999,67457,.23577393E-3,.4592E-4,0
OAO 3 (COPERNICUS),1972-065A,2026-07-20T11:06:54.972000,14.60076276,.00064164,35.0053,260.8009,172.1265,208.7075,0,U,6153,999,86561,.28089422E-4,.116E-5,0
ATLAS CENTAUR R/B,1972-065B,2026-07-20T07:29:11.564160,14.77969279,.00331025,35.0004,248.3416,46.0564,314.2860,0,U,6155,999,86089,.49531765E-4,.34E-5,0
SL-8 R/B,1975-112B,2026-07-20T06:56:05.953920,14.38259703,.0015997,74.0610,134.9781,196.7232,163.3397,0,U,8459,999,65093,.55223976E-4,.142E-5,0
SL-3 R/B,1977-057B,2026-07-20T13:37:32.677248,15.48477823,.00077226,97.5861,19.7441,151.8598,208.3071,0,U,10114,999,68887,.12298611E-3,.6441E-4,0
SEASAT 1,1978-064A,2026-07-20T12:13:19.291584,14.46261516,.00010453,108.0180,44.2410,264.0938,96.0089,0,U,10967,999,52571,.3471238E-4,-.14E-6,0
SL-14 R/B,1979-011B,2026-07-20T15:22:37.998048,14.92040831,.00152871,82.5261,330.4057,338.5547,21.5030,0,U,11267,999,54860,.24592222E-4,.275E-5,0
SL-8 R/B,1979-089B,2026-07-20T10:14:26.392704,14.42415456,.00162083,74.0669,205.3241,339.1008,20.9484,0,U,11574,999,45524,.20051935E-4,.4E-6,0
SL-14 R/B,1980-005B,2026-07-20T08:07:54.195744,14.91052671,.0017335,82.5141,181.3924,81.9181,278.4004,0,U,11672,999,49625,.28064112E-4,.304E-5,0
SL-8 R/B,1981-003B,2026-07-20T09:09:16.276032,15.15212290,.02495966,82.9381,166.9108,75.6548,287.2253,0,U,12139,999,33474,.40331339E-3,.17038E-3,0
SL-3 R/B,1981-046B,2026-07-20T13:16:54.999840,15.44853719,.00156527,81.2312,129.8554,276.5898,83.3565,0,U,12465,999,45892,.15338905E-3,.7258E-4,0
SL-3 R/B,1981-103B,2026-07-20T12:12:07.375680,15.22511339,.00123893,81.1566,57.4763,193.3416,166.7491,0,U,12904,999,99343,.92847958E-4,.2181E-4,0
SL-3 R/B,1982-013B,2026-07-20T14:25:21.869184,15.22984392,.00229288,81.1745,4.8275,91.1622,269.2237,0,U,13068,999,42457,.10975E-3,.2624E-4,0
SL-3 R/B,1982-039B,2026-07-20T13:13:28.808832,15.10714490,.00288772,81.1513,62.5448,240.2935,119.5416,0,U,13154,999,40169,.8540251E-4,.1452E-4,0
SL-3 R/B,1982-079B,2026-07-20T11:51:01.915488,15.26042962,.00248746,81.1449,36.0791,76.4486,283.9517,0,U,13403,999,39794,.1194887E-3,.313E-4,0
SL-14 R/B,1982-092B,2026-07-20T00:59:57.662304,14.86766664,.00192975,82.5672,17.5544,218.6587,263.4737,0,U,13553,999,34859,.21182246E-4,.214E-5,0
SL-3 R/B,1983-010B,2026-07-20T10:37:16.448736,15.49994840,.00129504,81.1003,198.9804,303.4787,56.5221,0,U,13819,999,37848,.14985822E-3,.8455E-4,0
SL-3 R/B,1983-075B,2026-07-20T12:21:57.917952,15.41043701,.00224021,97.6113,211.3956,112.0581,248.3047,0,U,14208,999,35059,.15388472E-3,.6317E-4,0
COSMOS 1536,1984-013A,2026-07-20T13:20:29.023008,15.25383375,.00144549,82.5463,335.6007,169.5894,190.5646,0,U,14699,999,29286,.14565723E-3,.3719E-4,0
SL-14 R/B,1984-027B,2026-07-20T06:36:44.290368,14.86081052,.00163741,82.5430,120.6902,253.0821,106.8601,0,U,14820,999,26732,.21886591E-4,.216E-5,0
